start=new Date('2021-12-20T00:00:00.000Z').valueOf();
sats=[{"INCLINATION":"53.0573","LAUNCH_DATE":"2020-01-29","MEAN_ELEMENT_THEORY":"SGP4","MEAN_ANOMALY":"300.8409","APOAPSIS":"548.320","OBJECT_TYPE":"PAYLOAD","NORAD_CAT_ID":"45078","REF_FRAME":"TEME","RCS_SIZE":"LARGE","TIME_SYSTEM":"UTC","ECCENTRICITY":"0.00016340","ARG_OF_PERICENTER":"59.2741","OBJECT_ID":"2020-006AL","REV_AT_EPOCH":"10448","EPHEMERIS_TYPE":"0","MEAN_MOTION_DDOT":"0.0000000000000","EPOCH":"2021-12-19T19:46:17.356800","SEMIMAJOR_AXIS":"6925.324","PERIAPSIS":"546.057","CLASSIFICATION_TYPE":"U","TLE_LINE2":"2 45078  53.0573 343.8396 0001634  59.2741 300.8409 15.06408118104482","TLE_LINE1":"1 45078U 20006AL  21353.82381200  .00003591  00000-0  25978-3 0  9992","SITE":"AFETR","BSTAR":"0.00025978000000","COUNTRY_CODE":"US","FILE":"3244825","RA_OF_ASC_NODE":"343.8396","MEAN_MOTION":"15.06408118","ELEMENT_SET_NO":"999","DECAY_DATE":null,"MEAN_MOTION_DOT":"0.00003591","PERIOD":"95.592","OBJECT_NAME":"STARLINK-1177","GP_ID":"192038002","CENTER_NAME":"EARTH"},{"OBJECT_TYPE":"PAYLOAD","APOAPSIS":"548.456","REF_FRAME":"TEME","NORAD_CAT_ID":"45079","MEAN_ELEMENT_THEORY":"SGP4","LAUNCH_DATE":"2020-01-29","INCLINATION":"53.0548","MEAN_ANOMALY":"305.7134","MEAN_MOTION_DDOT":"0.0000000000000","EPOCH":"2021-12-19T11:16:45.516864","SEMIMAJOR_AXIS":"6925.335","PERIAPSIS":"545.944","CLASSIFICATION_TYPE":"U","RCS_SIZE":"LARGE","ECCENTRICITY":"0.00018140","TIME_SYSTEM":"UTC","OBJECT_ID":"2020-006AM","ARG_OF_PERICENTER":"54.4023","REV_AT_EPOCH":"10443","EPHEMERIS_TYPE":"0","SITE":"AFETR","BSTAR":"0.00002286400000","COUNTRY_CODE":"US","TLE_LINE2":"2 45079  53.0548 345.4262 0001814  54.4023 305.7134 15.06404391104438","TLE_LINE1":"1 45079U 20006AM  21353.46997126  .00000059  00000-0  22864-4 0  9991","DECAY_DATE":null,"MEAN_MOTION_DOT":"0.00000059","OBJECT_NAME":"STARLINK-1149","PERIOD":"95.592","CENTER_NAME":"EARTH","GP_ID":"192009418","RA_OF_ASC_NODE":"345.4262","FILE":"3244588","MEAN_MOTION":"15.06404391","ELEMENT_SET_NO":"999"},{"MEAN_MOTION_DDOT":"0.0000000000000","EPOCH":"2021-12-19T16:13:59.007360","SEMIMAJOR_AXIS":"6925.338","PERIAPSIS":"545.885","CLASSIFICATION_TYPE":"U","RCS_SIZE":"LARGE","ECCENTRICITY":"0.00019030","TIME_SYSTEM":"UTC","ARG_OF_PERICENTER":"58.8985","OBJECT_ID":"2020-006AN","REV_AT_EPOCH":"10447","EPHEMERIS_TYPE":"0","OBJECT_TYPE":"PAYLOAD","APOAPSIS":"548.521","REF_FRAME":"TEME","NORAD_CAT_ID":"45080","LAUNCH_DATE":"2020-01-29","INCLINATION":"53.0546","MEAN_ELEMENT_THEORY":"SGP4","MEAN_ANOMALY":"301.2190","DECAY_DATE":null,"MEAN_MOTION_DOT":"0.00002081","OBJECT_NAME":"STARLINK-1153","PERIOD":"95.592","GP_ID":"192039004","CENTER_NAME":"EARTH","RA_OF_ASC_NODE":"344.4960","FILE":"3244825","MEAN_MOTION":"15.06403530","ELEMENT_SET_NO":"999","SITE":"AFETR","COUNTRY_CODE":"US","BSTAR":"0.00015854000000","TLE_LINE2":"2 45080  53.0546 344.4960 0001903  58.8985 301.2190 15.06403530104477","TLE_LINE1":"1 45080U 20006AN  21353.67637740  .00002081  00000-0  15854-3 0  9996"},{"TLE_LINE2":"2 45081  53.0551 344.3091 0001764  58.3867 301.7294 15.06397872104489","TLE_LINE1":"1 45081U 20006AP  21353.72061757  .00002116  00000-0  16095-3 0  9999","SITE":"AFETR","COUNTRY_CODE":"US","BSTAR":"0.00016095000000","RA_OF_ASC_NODE":"344.3091","FILE":"3244825","MEAN_MOTION":"15.06397872","ELEMENT_SET_NO":"999","MEAN_MOTION_DOT":"0.00002116","DECAY_DATE":null,"OBJECT_NAME":"STARLINK-1151","PERIOD":"95.592","GP_ID":"192039755","CENTER_NAME":"EARTH","LAUNCH_DATE":"2020-01-29","INCLINATION":"53.0551","MEAN_ELEMENT_THEORY":"SGP4","MEAN_ANOMALY":"301.7294","OBJECT_TYPE":"PAYLOAD","APOAPSIS":"548.442","REF_FRAME":"TEME","NORAD_CAT_ID":"45081","RCS_SIZE":"LARGE","ECCENTRICITY":"0.00017640","TIME_SYSTEM":"UTC","OBJECT_ID":"2020-006AP","ARG_OF_PERICENTER":"58.3867","REV_AT_EPOCH":"10448","EPHEMERIS_TYPE":"0","MEAN_MOTION_DDOT":"0.0000000000000","EPOCH":"2021-12-19T17:17:41.358048","SEMIMAJOR_AXIS":"6925.355","PERIAPSIS":"545.998","CLASSIFICATION_TYPE":"U"},{"LAUNCH_DATE":"2020-01-29","MEAN_ELEMENT_THEORY":"SGP4","INCLINATION":"53.0542","MEAN_ANOMALY":"299.3594","OBJECT_TYPE":"PAYLOAD","APOAPSIS":"548.510","REF_FRAME":"TEME","NORAD_CAT_ID":"45082","RCS_SIZE":"LARGE","OBJECT_ID":"2020-006AQ","ECCENTRICITY":"0.00018620","ARG_OF_PERICENTER":"60.7581","TIME_SYSTEM":"UTC","REV_AT_EPOCH":"10447","EPHEMERIS_TYPE":"0","MEAN_MOTION_DDOT":"0.0000000000000","EPOCH":"2021-12-19T17:01:45.333408","SEMIMAJOR_AXIS":"6925.355","PERIAPSIS":"545.931","CLASSIFICATION_TYPE":"U","TLE_LINE2":"2 45082  53.0542 344.3433 0001862  60.7581 299.3594 15.06397820104476","TLE_LINE1":"1 45082U 20006AQ  21353.70955247  .00000460  00000-0  49797-4 0  9990","SITE":"AFETR","COUNTRY_CODE":"US","BSTAR":"0.00004979700000","RA_OF_ASC_NODE":"344.3433","FILE":"3244825","MEAN_MOTION":"15.06397820","ELEMENT_SET_NO":"999","DECAY_DATE":null,"MEAN_MOTION_DOT":"0.00000460","OBJECT_NAME":"STARLINK-1160","PERIOD":"95.592","GP_ID":"192038503","CENTER_NAME":"EARTH"},{"SITE":"AFETR","COUNTRY_CODE":"US","BSTAR":"0.00006316400000","TLE_LINE2":"2 45083  53.0562   4.2140 0001597  64.1410 295.9743 15.06413725104202","TLE_LINE1":"1 45083U 20006AR  21353.74087737  .00000660  00000-0  63164-4 0  9991","DECAY_DATE":null,"MEAN_MOTION_DOT":"0.00000660","CENTER_NAME":"EARTH","GP_ID":"192038753","PERIOD":"95.591","OBJECT_NAME":"STARLINK-1190","FILE":"3244825","RA_OF_ASC_NODE":"4.2140","ELEMENT_SET_NO":"999","MEAN_MOTION":"15.06413725","APOAPSIS":"548.277","OBJECT_TYPE":"PAYLOAD","NORAD_CAT_ID":"45083","REF_FRAME":"TEME","LAUNCH_DATE":"2020-01-29","MEAN_ELEMENT_THEORY":"SGP4","INCLINATION":"53.0562","MEAN_ANOMALY":"295.9743","EPOCH":"2021-12-19T17:46:51.804768","MEAN_MOTION_DDOT":"0.0000000000000","PERIAPSIS":"546.066","CLASSIFICATION_TYPE":"U","SEMIMAJOR_AXIS":"6925.306","TIME_SYSTEM":"UTC","ECCENTRICITY":"0.00015970","ARG_OF_PERICENTER":"64.1410","OBJECT_ID":"2020-006AR","RCS_SIZE":"LARGE","EPHEMERIS_TYPE":"0","REV_AT_EPOCH":"10420"},{"TLE_LINE2":"2 45084  53.0557 324.2903 0001975  56.7454 303.3724 15.06409848104769","TLE_LINE1":"1 45084U 20006AS  21353.72245219  .00001134  00000-0  95011-4 0  9994","SITE":"AFETR","BSTAR":"0.00009501100000","COUNTRY_CODE":"US","FILE":"3244825","RA_OF_ASC_NODE":"324.2903","ELEMENT_SET_NO":"999","MEAN_MOTION":"15.06409848","DECAY_DATE":null,"MEAN_MOTION_DOT":"0.00001134","CENTER_NAME":"EARTH","GP_ID":"192039505","PERIOD":"95.592","OBJECT_NAME":"STARLINK-1173","LAUNCH_DATE":"2020-01-29","MEAN_ELEMENT_THEORY":"SGP4","INCLINATION":"53.0557","MEAN_ANOMALY":"303.3724","APOAPSIS":"548.551","OBJECT_TYPE":"PAYLOAD","NORAD_CAT_ID":"45084","REF_FRAME":"TEME","OBJECT_ID":"2020-006AS","ECCENTRICITY":"0.00019750","ARG_OF_PERICENTER":"56.7454","TIME_SYSTEM":"UTC","RCS_SIZE":"LARGE","EPHEMERIS_TYPE":"0","REV_AT_EPOCH":"10476","EPOCH":"2021-12-19T17:20:19.869216","MEAN_MOTION_DDOT":"0.0000000000000","PERIAPSIS":"545.816","CLASSIFICATION_TYPE":"U","SEMIMAJOR_AXIS":"6925.318"},{"REF_FRAME":"TEME","NORAD_CAT_ID":"45085","OBJECT_TYPE":"PAYLOAD","APOAPSIS":"548.623","MEAN_ANOMALY":"301.9883","INCLINATION":"53.0556","LAUNCH_DATE":"2020-01-29","MEAN_ELEMENT_THEORY":"SGP4","SEMIMAJOR_AXIS":"6925.358","CLASSIFICATION_TYPE":"U","PERIAPSIS":"545.824","MEAN_MOTION_DDOT":"0.0000000000000","EPOCH":"2021-12-19T15:39:29.720448","REV_AT_EPOCH":"10475","EPHEMERIS_TYPE":"0","RCS_SIZE":"LARGE","ECCENTRICITY":"0.00020210","OBJECT_ID":"2020-006AT","TIME_SYSTEM":"UTC","ARG_OF_PERICENTER":"58.1302","COUNTRY_CODE":"US","BSTAR":"0.00011416000000","SITE":"AFETR","TLE_LINE1":"1 45085U 20006AT  21353.65242732  .00001419  00000-0  11416-3 0  9996","TLE_LINE2":"2 45085  53.0556 324.5945 0002021  58.1302 301.9883 15.06396803104754","OBJECT_NAME":"STARLINK-1179","PERIOD":"95.592","CENTER_NAME":"EARTH","GP_ID":"192039255","MEAN_MOTION_DOT":"0.00001419","DECAY_DATE":null,"MEAN_MOTION":"15.06396803","ELEMENT_SET_NO":"999","RA_OF_ASC_NODE":"324.5945","FILE":"3244825"},{"MEAN_MOTION_DOT":"0.00006487","DECAY_DATE":null,"GP_ID":"192038003","CENTER_NAME":"EARTH","OBJECT_NAME":"STARLINK-1181","PERIOD":"95.525","RA_OF_ASC_NODE":"320.7420","FILE":"3244825","ELEMENT_SET_NO":"999","MEAN_MOTION":"15.07466071","SITE":"AFETR","COUNTRY_CODE":"US","BSTAR":"0.00044123000000","TLE_LINE2":"2 45086  53.0034 320.7420 0001153  91.4191 268.6930 15.07466071104728","TLE_LINE1":"1 45086U 20006AU  21353.92297517  .00006487  00000-0  44123-3 0  9999","EPOCH":"2021-12-19T22:09:05.054688","MEAN_MOTION_DDOT":"0.0000000000000","PERIAPSIS":"543.150","CLASSIFICATION_TYPE":"U","SEMIMAJOR_AXIS":"6922.083","TIME_SYSTEM":"UTC","ECCENTRICITY":"0.00011530","OBJECT_ID":"2020-006AU","ARG_OF_PERICENTER":"91.4191","RCS_SIZE":"LARGE","EPHEMERIS_TYPE":"0","REV_AT_EPOCH":"10472","OBJECT_TYPE":"PAYLOAD","APOAPSIS":"544.746","REF_FRAME":"TEME","NORAD_CAT_ID":"45086","LAUNCH_DATE":"2020-01-29","MEAN_ELEMENT_THEORY":"SGP4","INCLINATION":"53.0034","MEAN_ANOMALY":"268.6930"},{"PERIAPSIS":"546.009","CLASSIFICATION_TYPE":"U","SEMIMAJOR_AXIS":"6925.358","EPOCH":"2021-12-19T15:18:16.698528","MEAN_MOTION_DDOT":"0.0000000000000","EPHEMERIS_TYPE":"0","REV_AT_EPOCH":"10475","TIME_SYSTEM":"UTC","ECCENTRICITY":"0.00017530","ARG_OF_PERICENTER":"56.0570","OBJECT_ID":"2020-006AV","RCS_SIZE":"LARGE","REF_FRAME":"TEME","NORAD_CAT_ID":"45087","OBJECT_TYPE":"PAYLOAD","APOAPSIS":"548.437","MEAN_ANOMALY":"304.0586","INCLINATION":"53.0554","LAUNCH_DATE":"2020-01-29","MEAN_ELEMENT_THEORY":"SGP4","CENTER_NAME":"EARTH","GP_ID":"192038253","OBJECT_NAME":"STARLINK-1185","PERIOD":"95.592","DECAY_DATE":null,"MEAN_MOTION_DOT":"0.00001430","ELEMENT_SET_NO":"999","MEAN_MOTION":"15.06396853","RA_OF_ASC_NODE":"324.6629","FILE":"3244825","COUNTRY_CODE":"US","BSTAR":"0.00011489000000","SITE":"AFETR","TLE_LINE1":"1 45087U 20006AV  21353.63769327  .00001430  00000-0  11489-3 0  9993","TLE_LINE2":"2 45087  53.0554 324.6629 0001753  56.0570 304.0586 15.06396853104758"}];
